[{"OBJECT_NAME":"STARLINK-11747 [DTC]","OBJECT_ID":"2025-124F","EPOCH":"2025-11-20T01:44:30.082560","MEAN_MOTION":15.70932461,"ECCENTRICITY":0.0001707,"INCLINATION":42.9989,"RA_OF_ASC_NODE":330.0246,"ARG_OF_PERICENTER":254.8522,"MEAN_ANOMALY":105.2157,"EPHEMERIS_TYPE":0,"CLASSIFICATION_TYPE":"U","NORAD_CAT_ID":64322,"ELEMENT_SET_NO":999,"REV_AT_EPOCH":2559,"BSTAR":0.0026529602,"MEAN_MOTION_DOT":0.0035635,"MEAN_MOTION_DDOT":0},{"OBJECT_NAME":"STARLINK-11728 [DTC]","OBJECT_ID":"2025-124G","EPOCH":"2025-11-20T07:04:51.973536","MEAN_MOTION":15.71063277,"ECCENTRICITY":0.00042386,"INCLINATION":42.999,"RA_OF_ASC_NODE":328.2342,"ARG_OF_PERICENTER":112.9929,"MEAN_ANOMALY":247.1386,"EPHEMERIS_TYPE":0,"CLASSIFICATION_TYPE":"U","NORAD_CAT_ID":64323,"ELEMENT_SET_NO":999,"REV_AT_EPOCH":2563,"BSTAR":0.0019001444,"MEAN_MOTION_DOT":0.00253368,"MEAN_MOTION_DDOT":0},{"OBJECT_NAME":"STARLINK-11696 [DTC]","OBJECT_ID":"2025-124H","EPOCH":"2025-11-19T17:36:07.530336","MEAN_MOTION":15.70942799,"ECCENTRICITY":0.00014141,"INCLINATION":42.9986,"RA_OF_ASC_NODE":331.7696,"ARG_OF_PERICENTER":299.9026,"MEAN_ANOMALY":60.1701,"EPHEMERIS_TYPE":0,"CLASSIFICATION_TYPE":"U","NORAD_CAT_ID":64324,"ELEMENT_SET_NO":999,"REV_AT_EPOCH":2554,"BSTAR":0.0018011068,"MEAN_MOTION_DOT":0.00238437,"MEAN_MOTION_DDOT":0},{"OBJECT_NAME":"STARLINK-11698 [DTC]","OBJECT_ID":"2025-124J","EPOCH":"2025-11-19T07:04:09.733440","MEAN_MOTION":15.70874074,"ECCENTRICITY":0.00016528,"INCLINATION":42.9997,"RA_OF_ASC_NODE":334.5027,"ARG_OF_PERICENTER":266.3078,"MEAN_ANOMALY":93.7601,"EPHEMERIS_TYPE":0,"CLASSIFICATION_TYPE":"U","NORAD_CAT_ID":64325,"ELEMENT_SET_NO":999,"REV_AT_EPOCH":2547,"BSTAR":0.001631583,"MEAN_MOTION_DOT":0.0021471,"MEAN_MOTION_DDOT":0},{"OBJECT_NAME":"STARLINK-11678 [DTC]","OBJECT_ID":"2025-124K","EPOCH":"2025-11-20T03:23:42.553536","MEAN_MOTION":15.70970012,"ECCENTRICITY":3.468e-5,"INCLINATION":42.9961,"RA_OF_ASC_NODE":329.6827,"ARG_OF_PERICENTER":151.6877,"MEAN_ANOMALY":208.401,"EPHEMERIS_TYPE":0,"CLASSIFICATION_TYPE":"U","NORAD_CAT_ID":64326,"ELEMENT_SET_NO":999,"REV_AT_EPOCH":2560,"BSTAR":0.0016565337,"MEAN_MOTION_DOT":0.00219002,"MEAN_MOTION_DDOT":0},{"OBJECT_NAME":"STARLINK-11674 [DTC]","OBJECT_ID":"2025-124L","EPOCH":"2025-11-19T17:28:28.862976","MEAN_MOTION":15.70972822,"ECCENTRICITY":0.00011592,"INCLINATION":42.9992,"RA_OF_ASC_NODE":331.7253,"ARG_OF_PERICENTER":303.4254,"MEAN_ANOMALY":56.6503,"EPHEMERIS_TYPE":0,"CLASSIFICATION_TYPE":"U","NORAD_CAT_ID":64327,"ELEMENT_SET_NO":999,"REV_AT_EPOCH":2554,"BSTAR":0.002765616,"MEAN_MOTION_DOT":0.00372892,"MEAN_MOTION_DDOT":0},{"OBJECT_NAME":"STARLINK-11707 [DTC]","OBJECT_ID":"2025-124M","EPOCH":"2025-11-19T17:51:25.177824","MEAN_MOTION":15.70910138,"ECCENTRICITY":1.82e-5,"INCLINATION":42.9973,"RA_OF_ASC_NODE":331.8537,"ARG_OF_PERICENTER":223.7778,"MEAN_ANOMALY":136.3075,"EPHEMERIS_TYPE":0,"CLASSIFICATION_TYPE":"U","NORAD_CAT_ID":64328,"ELEMENT_SET_NO":999,"REV_AT_EPOCH":2554,"BSTAR":0.0018734599,"MEAN_MOTION_DOT":0.00247995,"MEAN_MOTION_DDOT":0},{"OBJECT_NAME":"STARLINK-11734 [DTC]","OBJECT_ID":"2025-124N","EPOCH":"2025-11-19T17:13:10.996896","MEAN_MOTION":15.70936897,"ECCENTRICITY":0.00020856,"INCLINATION":42.9988,"RA_OF_ASC_NODE":331.6388,"ARG_OF_PERICENTER":271.3961,"MEAN_ANOMALY":88.6668,"EPHEMERIS_TYPE":0,"CLASSIFICATION_TYPE":"U","NORAD_CAT_ID":64329,"ELEMENT_SET_NO":999,"REV_AT_EPOCH":2554,"BSTAR":0.0020104217,"MEAN_MOTION_DOT":0.00267064,"MEAN_MOTION_DDOT":0},{"OBJECT_NAME":"STARLINK-34252","OBJECT_ID":"2025-124P","EPOCH":"2025-11-20T04:50:25.184832","MEAN_MOTION":15.27593406,"ECCENTRICITY":7.583e-5,"INCLINATION":42.9949,"RA_OF_ASC_NODE":20.2215,"ARG_OF_PERICENTER":296.0354,"MEAN_ANOMALY":64.0419,"EPHEMERIS_TYPE":0,"CLASSIFICATION_TYPE":"U","NORAD_CAT_ID":64330,"ELEMENT_SET_NO":999,"REV_AT_EPOCH":2503,"BSTAR":0.00076795629,"MEAN_MOTION_DOT":0.00020939,"MEAN_MOTION_DDOT":0},{"OBJECT_NAME":"STARLINK-34050","OBJECT_ID":"2025-124Q","EPOCH":"2025-11-19T12:54:03.565728","MEAN_MOTION":15.27632306,"ECCENTRICITY":8.79e-5,"INCLINATION":43.0015,"RA_OF_ASC_NODE":23.8325,"ARG_OF_PERICENTER":270.5823,"MEAN_ANOMALY":89.4928,"EPHEMERIS_TYPE":0,"CLASSIFICATION_TYPE":"U","NORAD_CAT_ID":64331,"ELEMENT_SET_NO":999,"REV_AT_EPOCH":2599,"BSTAR":0.0012032,"MEAN_MOTION_DOT":0.00033049,"MEAN_MOTION_DDOT":0},{"OBJECT_NAME":"STARLINK-33782","OBJECT_ID":"2025-124R","EPOCH":"2025-11-20T04:18:56.909376","MEAN_MOTION":15.27587921,"ECCENTRICITY":0.00016309,"INCLINATION":43.0002,"RA_OF_ASC_NODE":20.0473,"ARG_OF_PERICENTER":282.8385,"MEAN_ANOMALY":77.2284,"EPHEMERIS_TYPE":0,"CLASSIFICATION_TYPE":"U","NORAD_CAT_ID":64332,"ELEMENT_SET_NO":999,"REV_AT_EPOCH":2503,"BSTAR":-0.0007178055,"MEAN_MOTION_DOT":-0.00019967,"MEAN_MOTION_DDOT":0},{"OBJECT_NAME":"STARLINK-34207","OBJECT_ID":"2025-124S","EPOCH":"2025-11-20T04:44:52.195776","MEAN_MOTION":15.27585596,"ECCENTRICITY":6.739e-5,"INCLINATION":43.0007,"RA_OF_ASC_NODE":20.1882,"ARG_OF_PERICENTER":311.3402,"MEAN_ANOMALY":48.7392,"EPHEMERIS_TYPE":0,"CLASSIFICATION_TYPE":"U","NORAD_CAT_ID":64333,"ELEMENT_SET_NO":999,"REV_AT_EPOCH":2503,"BSTAR":0.00025747109,"MEAN_MOTION_DOT":6.831e-5,"MEAN_MOTION_DDOT":0},{"OBJECT_NAME":"STARLINK-34260","OBJECT_ID":"2025-124T","EPOCH":"2025-11-20T04:55:58.127232","MEAN_MOTION":15.2759398,"ECCENTRICITY":4.55e-5,"INCLINATION":42.9955,"RA_OF_ASC_NODE":20.2426,"ARG_OF_PERICENTER":329.0498,"MEAN_ANOMALY":31.0327,"EPHEMERIS_TYPE":0,"CLASSIFICATION_TYPE":"U","NORAD_CAT_ID":64334,"ELEMENT_SET_NO":999,"REV_AT_EPOCH":2503,"BSTAR":0.00030719111,"MEAN_MOTION_DOT":8.204e-5,"MEAN_MOTION_DDOT":0},{"OBJECT_NAME":"STARLINK-33855","OBJECT_ID":"2025-124U","EPOCH":"2025-11-20T04:13:24.852576","MEAN_MOTION":15.27635575,"ECCENTRICITY":5.701e-5,"INCLINATION":42.9995,"RA_OF_ASC_NODE":20.0149,"ARG_OF_PERICENTER":247.6345,"MEAN_ANOMALY":112.4446,"EPHEMERIS_TYPE":0,"CLASSIFICATION_TYPE":"U","NORAD_CAT_ID":64335,"ELEMENT_SET_NO":999,"REV_AT_EPOCH":2503,"BSTAR":0.0013984485,"MEAN_MOTION_DOT":0.00038486,"MEAN_MOTION_DDOT":0},{"OBJECT_NAME":"STARLINK-34223","OBJECT_ID":"2025-124V","EPOCH":"2025-11-19T13:50:03.048288","MEAN_MOTION":15.27618834,"ECCENTRICITY":0.0001144,"INCLINATION":43.0002,"RA_OF_ASC_NODE":19.7953,"ARG_OF_PERICENTER":289.9914,"MEAN_ANOMALY":70.0815,"EPHEMERIS_TYPE":0,"CLASSIFICATION_TYPE":"U","NORAD_CAT_ID":64336,"ELEMENT_SET_NO":999,"REV_AT_EPOCH":2498,"BSTAR":0.0010796,"MEAN_MOTION_DOT":0.00029602,"MEAN_MOTION_DDOT":0},{"OBJECT_NAME":"STARLINK-34216","OBJECT_ID":"2025-124W","EPOCH":"2025-11-20T03:53:03.974784","MEAN_MOTION":15.27611233,"ECCENTRICITY":0.00014119,"INCLINATION":42.9973,"RA_OF_ASC_NODE":19.9142,"ARG_OF_PERICENTER":99.5297,"MEAN_ANOMALY":260.5714,"EPHEMERIS_TYPE":0,"CLASSIFICATION_TYPE":"U","NORAD_CAT_ID":64337,"ELEMENT_SET_NO":999,"REV_AT_EPOCH":2503,"BSTAR":0.00092834202,"MEAN_MOTION_DOT":0.00025396,"MEAN_MOTION_DDOT":0},{"OBJECT_NAME":"STARLINK-34218","OBJECT_ID":"2025-124X","EPOCH":"2025-11-20T04:14:06.367776","MEAN_MOTION":15.27586737,"ECCENTRICITY":0.00011644,"INCLINATION":43.001,"RA_OF_ASC_NODE":16.5611,"ARG_OF_PERICENTER":292.9609,"MEAN_ANOMALY":67.112,"EPHEMERIS_TYPE":0,"CLASSIFICATION_TYPE":"U","NORAD_CAT_ID":64338,"ELEMENT_SET_NO":999,"REV_AT_EPOCH":2507,"BSTAR":-0.0001157013,"MEAN_MOTION_DOT":-3.445e-5,"MEAN_MOTION_DDOT":0},{"OBJECT_NAME":"STARLINK-34017","OBJECT_ID":"2025-124Y","EPOCH":"2025-11-18T21:06:56.726208","MEAN_MOTION":15.27580782,"ECCENTRICITY":9.728e-5,"INCLINATION":43,"RA_OF_ASC_NODE":27.4896,"ARG_OF_PERICENTER":275.4477,"MEAN_ANOMALY":84.6264,"EPHEMERIS_TYPE":0,"CLASSIFICATION_TYPE":"U","NORAD_CAT_ID":64339,"ELEMENT_SET_NO":999,"REV_AT_EPOCH":2483,"BSTAR":0.0012533766,"MEAN_MOTION_DOT":0.0003439,"MEAN_MOTION_DDOT":0},{"OBJECT_NAME":"STARLINK-33977","OBJECT_ID":"2025-126A","EPOCH":"2025-11-20T06:29:44.364768","MEAN_MOTION":14.98336448,"ECCENTRICITY":0.00028071,"INCLINATION":70.0011,"RA_OF_ASC_NODE":310.2751,"ARG_OF_PERICENTER":273.5165,"MEAN_ANOMALY":86.5673,"EPHEMERIS_TYPE":0,"CLASSIFICATION_TYPE":"U","NORAD_CAT_ID":64344,"ELEMENT_SET_NO":999,"REV_AT_EPOCH":2550,"BSTAR":0.00018389685,"MEAN_MOTION_DOT":2.102e-5,"MEAN_MOTION_DDOT":0},{"OBJECT_NAME":"STARLINK-34426","OBJECT_ID":"2025-126B","EPOCH":"2025-11-20T06:23:29.534784","MEAN_MOTION":14.98335028,"ECCENTRICITY":0.00030353,"INCLINATION":70.0013,"RA_OF_ASC_NODE":310.2586,"ARG_OF_PERICENTER":277.9689,"MEAN_ANOMALY":82.1125,"EPHEMERIS_TYPE":0,"CLASSIFICATION_TYPE":"U","NORAD_CAT_ID":64345,"ELEMENT_SET_NO":999,"REV_AT_EPOCH":2429,"BSTAR":0.00024733171,"MEAN_MOTION_DOT":2.86e-5,"MEAN_MOTION_DDOT":0},{"OBJECT_NAME":"STARLINK-34437","OBJECT_ID":"2025-126C","EPOCH":"2025-11-20T05:29:25.523232","MEAN_MOTION":14.98334484,"ECCENTRICITY":0.00030563,"INCLINATION":70.0003,"RA_OF_ASC_NODE":310.5323,"ARG_OF_PERICENTER":263.4046,"MEAN_ANOMALY":96.6765,"EPHEMERIS_TYPE":0,"CLASSIFICATION_TYPE":"U","NORAD_CAT_ID":64346,"ELEMENT_SET_NO":999,"REV_AT_EPOCH":2428,"BSTAR":0.00028015553,"MEAN_MOTION_DOT":3.252e-5,"MEAN_MOTION_DDOT":0},{"OBJECT_NAME":"STARLINK-34407","OBJECT_ID":"2025-126D","EPOCH":"2025-11-20T07:11:51.171648","MEAN_MOTION":14.98329818,"ECCENTRICITY":0.00029013,"INCLINATION":70.0012,"RA_OF_ASC_NODE":310.3726,"ARG_OF_PERICENTER":269.2465,"MEAN_ANOMALY":90.8362,"EPHEMERIS_TYPE":0,"CLASSIFICATION_TYPE":"U","NORAD_CAT_ID":64347,"ELEMENT_SET_NO":999,"REV_AT_EPOCH":2429,"BSTAR":0.001885367,"MEAN_MOTION_DOT":0.00022475,"MEAN_MOTION_DDOT":0},{"OBJECT_NAME":"STARLINK-34274","OBJECT_ID":"2025-126E","EPOCH":"2025-11-20T05:53:29.011488","MEAN_MOTION":14.98346846,"ECCENTRICITY":0.00027863,"INCLINATION":70.0003,"RA_OF_ASC_NODE":310.5897,"ARG_OF_PERICENTER":270.1619,"MEAN_ANOMALY":89.922,"EPHEMERIS_TYPE":0,"CLASSIFICATION_TYPE":"U","NORAD_CAT_ID":64348,"ELEMENT_SET_NO":999,"REV_AT_EPOCH":2428,"BSTAR":0.00025450435,"MEAN_MOTION_DOT":2.946e-5,"MEAN_MOTION_DDOT":0}]
